{
  "type": "FeatureCollection",
  "features": [
    {
      "type": "Feature",
      "properties": {
        "norad_id": 33986,
        "name": "COSMOS 2251 DEB",
        "group": "cosmos-2251-debris",
        "lat": 8.107741211061727,
        "lon": -83.13623035984003,
        "alt_km": 722.4598104935185,
        "timestamp": "2025-12-27T21:25:02.910018+00:00",
        "meta_object_name": "COSMOS 2251 DEB",
        "meta_object_id": "1993-036FV",
        "meta_epoch": "2025-12-27T05:26:53.214720",
        "meta_mean_motion": 14.43274474,
        "meta_eccentricity": 0.0041189,
        "meta_inclination": 74.0362,
        "meta_ra_of_asc_node": 275.7622,
        "meta_arg_of_pericenter": 345.4458,
        "meta_mean_anomaly": 167.0777,
        "meta_ephemeris_type": 0,
        "meta_classification_type": "U",
        "meta_norad_cat_id": 33986,
        "meta_element_set_no": 999,
        "meta_rev_at_epoch": 88237,
        "meta_bstar": 0.00079473,
        "meta_mean_motion_dot": 2.678e-05,
        "meta_mean_motion_ddot": 0,
        "tle_line1": "1 33986U 93036FV  25361.22700480  .00002678  00000+0  79473-3 0  9995",
        "tle_line2": "2 33986  74.0362 275.7622 0041189 345.4458 167.0777 14.43274474882373"
      },
      "geometry": {
        "type": "Point",
        "coordinates": [
          -83.13623035984003,
          8.107741211061727
        ]
      }
    },
    {
      "type": "Feature",
      "properties": {
        "norad_id": 33990,
        "name": "COSMOS 2251 DEB",
        "group": "cosmos-2251-debris",
        "lat": 21.82025630145262,
        "lon": -91.70443562730892,
        "alt_km": 1131.1209762895778,
        "timestamp": "2025-12-27T21:25:02.910028+00:00",
        "meta_object_name": "COSMOS 2251 DEB",
        "meta_object_id": "1993-036FZ",
        "meta_epoch": "2025-12-27T11:12:42.307776",
        "meta_mean_motion": 13.50019373,
        "meta_eccentricity": 0.0407226,
        "meta_inclination": 73.9281,
        "meta_ra_of_asc_node": 262.3501,
        "meta_arg_of_pericenter": 280.0059,
        "meta_mean_anomaly": 192.3553,
        "meta_ephemeris_type": 0,
        "meta_classification_type": "U",
        "meta_norad_cat_id": 33990,
        "meta_element_set_no": 999,
        "meta_rev_at_epoch": 82928,
        "meta_bstar": 0.00078639,
        "meta_mean_motion_dot": 8.13e-06,
        "meta_mean_motion_ddot": 0,
        "tle_line1": "1 33990U 93036FZ  25361.46715634  .00000813  00000+0  78639-3 0  9995",
        "tle_line2": "2 33990  73.9281 262.3501 0407226 280.0059 192.3553 13.50019373829289"
      },
      "geometry": {
        "type": "Point",
        "coordinates": [
          -91.70443562730892,
          21.82025630145262
        ]
      }
    },
    {
      "type": "Feature",
      "properties": {
        "norad_id": 33992,
        "name": "COSMOS 2251 DEB",
        "group": "cosmos-2251-debris",
        "lat": 36.915950244422476,
        "lon": -39.063845037963425,
        "alt_km": 636.0403426669327,
        "timestamp": "2025-12-27T21:25:02.910053+00:00",
        "meta_object_name": "COSMOS 2251 DEB",
        "meta_object_id": "1993-036GB",
        "meta_epoch": "2025-12-27T07:03:23.365152",
        "meta_mean_motion": 14.66338641,
        "meta_eccentricity": 0.0051968,
        "meta_inclination": 74.0245,
        "meta_ra_of_asc_node": 309.6618,
        "meta_arg_of_pericenter": 63.1156,
        "meta_mean_anomaly": 58.4582,
        "meta_ephemeris_type": 0,
        "meta_classification_type": "U",
        "meta_norad_cat_id": 33992,
        "meta_element_set_no": 999,
        "meta_rev_at_epoch": 89338,
        "meta_bstar": 0.00099184,
        "meta_mean_motion_dot": 5.56e-05,
        "meta_mean_motion_ddot": 0,
        "tle_line1": "1 33992U 93036GB  25361.29402043  .00005560  00000+0  99184-3 0  9997",
        "tle_line2": "2 33992  74.0245 309.6618 0051968  63.1156  58.4582 14.66338641893389"
      },
      "geometry": {
        "type": "Point",
        "coordinates": [
          -39.063845037963425,
          36.915950244422476
        ]
      }
    },
    {
      "type": "Feature",
      "properties": {
        "norad_id": 33994,
        "name": "COSMOS 2251 DEB",
        "group": "cosmos-2251-debris",
        "lat": 25.210829758616537,
        "lon": 170.11126679017687,
        "alt_km": 753.959474503632,
        "timestamp": "2025-12-27T21:25:02.910064+00:00",
        "meta_object_name": "COSMOS 2251 DEB",
        "meta_object_id": "1993-036GD",
        "meta_epoch": "2025-12-27T11:34:14.888064",
        "meta_mean_motion": 14.41224152,
        "meta_eccentricity": 0.0024068,
        "meta_inclination": 74.0416,
        "meta_ra_of_asc_node": 163.1281,
        "meta_arg_of_pericenter": 295.0114,
        "meta_mean_anomaly": 123.2813,
        "meta_ephemeris_type": 0,
        "meta_classification_type": "U",
        "meta_norad_cat_id": 33994,
        "meta_element_set_no": 999,
        "meta_rev_at_epoch": 88632,
        "meta_bstar": 0.00012257,
        "meta_mean_motion_dot": 3.7e-06,
        "meta_mean_motion_ddot": 0,
        "tle_line1": "1 33994U 93036GD  25361.48211676  .00000370  00000+0  12257-3 0  9990",
        "tle_line2": "2 33994  74.0416 163.1281 0024068 295.0114 123.2813 14.41224152886329"
      },
      "geometry": {
        "type": "Point",
        "coordinates": [
          170.11126679017687,
          25.210829758616537
        ]
      }
    },
    {
      "type": "Feature",
      "properties": {
        "norad_id": 33995,
        "name": "COSMOS 2251 DEB",
        "group": "cosmos-2251-debris",
        "lat": 62.31741516848988,
        "lon": -121.37480439213171,
        "alt_km": 727.6410996287377,
        "timestamp": "2025-12-27T21:25:02.910075+00:00",
        "meta_object_name": "COSMOS 2251 DEB",
        "meta_object_id": "1993-036GE",
        "meta_epoch": "2025-12-27T12:31:49.202400",
        "meta_mean_motion": 14.34843439,
        "meta_eccentricity": 0.005914,
        "meta_inclination": 74.0614,
        "meta_ra_of_asc_node": 92.3076,
        "meta_arg_of_pericenter": 102.4514,
        "meta_mean_anomaly": 258.3265,
        "meta_ephemeris_type": 0,
        "meta_classification_type": "U",
        "meta_norad_cat_id": 33995,
        "meta_element_set_no": 999,
        "meta_rev_at_epoch": 87731,
        "meta_bstar": 0.00085666,
        "meta_mean_motion_dot": 2.456e-05,
        "meta_mean_motion_ddot": 0,
        "tle_line1": "1 33995U 93036GE  25361.52209725  .00002456  00000+0  85666-3 0  9999",
        "tle_line2": "2 33995  74.0614  92.3076 0059140 102.4514 258.3265 14.34843439877316"
      },
      "geometry": {
        "type": "Point",
        "coordinates": [
          -121.37480439213171,
          62.31741516848988
        ]
      }
    },
    {
      "type": "Feature",
      "properties": {
        "norad_id": 33999,
        "name": "COSMOS 2251 DEB",
        "group": "cosmos-2251-debris",
        "lat": 42.382870485783194,
        "lon": -144.18509897031777,
        "alt_km": 592.6751104631339,
        "timestamp": "2025-12-27T21:25:02.910085+00:00",
        "meta_object_name": "COSMOS 2251 DEB",
        "meta_object_id": "1993-036GJ",
        "meta_epoch": "2025-12-26T22:33:42.220800",
        "meta_mean_motion": 14.83640087,
        "meta_eccentricity": 0.00443518,
        "meta_inclination": 73.9179,
        "meta_ra_of_asc_node": 202.4501,
        "meta_arg_of_pericenter": 93.5688,
        "meta_mean_anomaly": 267.0563,
        "meta_ephemeris_type": 0,
        "meta_classification_type": "U",
        "meta_norad_cat_id": 33999,
        "meta_element_set_no": 999,
        "meta_rev_at_epoch": 89461,
        "meta_bstar": 0.0014019773,
        "meta_mean_motion_dot": 0.00011759,
        "meta_mean_motion_ddot": 0,
        "tle_line1": "1 33999U 93036GJ  25360.94007200  .00011759  00000+0  14020-2 0  9993",
        "tle_line2": "2 33999  73.9179 202.4501 0044351  93.5688 267.0563 14.83640087894619"
      },
      "geometry": {
        "type": "Point",
        "coordinates": [
          -144.18509897031777,
          42.382870485783194
        ]
      }
    },
    {
      "type": "Feature",
      "properties": {
        "norad_id": 34001,
        "name": "COSMOS 2251 DEB",
        "group": "cosmos-2251-debris",
        "lat": 31.56297793077609,
        "lon": -96.14747164874146,
        "alt_km": 758.8298278919247,
        "timestamp": "2025-12-27T21:25:02.910096+00:00",
        "meta_object_name": "COSMOS 2251 DEB",
        "meta_object_id": "1993-036GL",
        "meta_epoch": "2025-12-27T03:35:08.350944",
        "meta_mean_motion": 14.37114881,
        "meta_eccentricity": 0.00205402,
        "meta_inclination": 74.0383,
        "meta_ra_of_asc_node": 255.0918,
        "meta_arg_of_pericenter": 333.3043,
        "meta_mean_anomaly": 177.1582,
        "meta_ephemeris_type": 0,
        "meta_classification_type": "U",
        "meta_norad_cat_id": 34001,
        "meta_element_set_no": 999,
        "meta_rev_at_epoch": 88353,
        "meta_bstar": 0.00019054465,
        "meta_mean_motion_dot": 5.41e-06,
        "meta_mean_motion_ddot": 0,
        "tle_line1": "1 34001U 93036GL  25361.14940221  .00000541  00000+0  19054-3 0  9990",
        "tle_line2": "2 34001  74.0383 255.0918 0020540 333.3043 177.1582 14.37114881883531"
      },
      "geometry": {
        "type": "Point",
        "coordinates": [
          -96.14747164874146,
          31.56297793077609
        ]
      }
    }
  ]
}